[{"OBJECT_NAME":"NUSAT-49 (KLARA DAN VON NEUMANN)","OBJECT_ID":"2024-149AJ","EPOCH":"2026-03-09T19:09:16.004160","MEAN_MOTION":15.30828857,"ECCENTRICITY":0.00011321,"INCLINATION":97.3807,"RA_OF_ASC_NODE":150.738,"ARG_OF_PERICENTER":286.7761,"MEAN_ANOMALY":73.3356,"EPHEMERIS_TYPE":0,"CLASSIFICATION_TYPE":"U","NORAD_CAT_ID":60500,"ELEMENT_SET_NO":999,"REV_AT_EPOCH":8693,"BSTAR":0.00043568345,"MEAN_MOTION_DOT":0.00012912,"MEAN_MOTION_DDOT":0},{"OBJECT_NAME":"STARLINK-32533","OBJECT_ID":"2024-195V","EPOCH":"2026-03-09T12:54:15.424992","MEAN_MOTION":15.30193459,"ECCENTRICITY":9.764e-5,"INCLINATION":53.1609,"RA_OF_ASC_NODE":155.6757,"ARG_OF_PERICENTER":77.7139,"MEAN_ANOMALY":282.3971,"EPHEMERIS_TYPE":0,"CLASSIFICATION_TYPE":"U","NORAD_CAT_ID":61706,"ELEMENT_SET_NO":999,"REV_AT_EPOCH":7716,"BSTAR":-1.2655917e-5,"MEAN_MOTION_DOT":-7.34e-6,"MEAN_MOTION_DDOT":0}]
